CCSDS_OMM_VERS = 2.0
CREATION_DATE  = 
ORIGINATOR     = 

OBJECT_NAME    = UNKNOWN
OBJECT_ID      = 
CENTER_NAME    = EARTH
REF_FRAME      = TEME
TIME_SYSTEM    = UTC
MEAN_ELEMENT_THEORY = SGP/SGP4

EPOCH          = 2025-11-28T17:57:58.262400
MEAN_MOTION    = 14.43071030
ECCENTRICITY   = .00124
INCLINATION    = 98.1535
RA_OF_ASC_NODE = 327.7647
ARG_OF_PERICENTER = 196.6700
MEAN_ANOMALY   = 163.4085

EPHEMERIS_TYPE = 0
CLASSIFICATION_TYPE = U
NORAD_CAT_ID   = 89261
ELEMENT_SET_NO = 999
REV_AT_EPOCH   = 53179
BSTAR          = .29887E-3
MEAN_MOTION_DOT = .962E-5
MEAN_MOTION_DDOT = 0

CCSDS_OMM_VERS = 2.0
CREATION_DATE  = 
ORIGINATOR     = 

OBJECT_NAME    = UNKNOWN
OBJECT_ID      = 
CENTER_NAME    = EARTH
REF_FRAME      = TEME
TIME_SYSTEM    = UTC
MEAN_ELEMENT_THEORY = SGP/SGP4

EPOCH          = 2025-11-25T16:15:22.645152
MEAN_MOTION    = 9.02796215
ECCENTRICITY   = .2843836
INCLINATION    = 84.3527
RA_OF_ASC_NODE = 108.5142
ARG_OF_PERICENTER = 7.7412
MEAN_ANOMALY   = 2.8097

EPHEMERIS_TYPE = 0
CLASSIFICATION_TYPE = U
NORAD_CAT_ID   = 89304
ELEMENT_SET_NO = 999
REV_AT_EPOCH   = 43686
BSTAR          = .14997E-1
MEAN_MOTION_DOT = .11515E-3
MEAN_MOTION_DDOT = 0

CCSDS_OMM_VERS = 2.0
CREATION_DATE  = 
ORIGINATOR     = 

OBJECT_NAME    = UNKNOWN
OBJECT_ID      = 
CENTER_NAME    = EARTH
REF_FRAME      = TEME
TIME_SYSTEM    = UTC
MEAN_ELEMENT_THEORY = SGP/SGP4

EPOCH          = 2025-11-27T13:20:02.046336
MEAN_MOTION    = 12.96237304
ECCENTRICITY   = .0028078
INCLINATION    = 90.2454
RA_OF_ASC_NODE = 7.0140
ARG_OF_PERICENTER = 307.0052
MEAN_ANOMALY   = 52.8499

EPHEMERIS_TYPE = 0
CLASSIFICATION_TYPE = U
NORAD_CAT_ID   = 89349
ELEMENT_SET_NO = 999
REV_AT_EPOCH   = 47678
BSTAR          = .20556E-2
MEAN_MOTION_DOT = .594E-5
MEAN_MOTION_DDOT = 0

CCSDS_OMM_VERS = 2.0
CREATION_DATE  = 
ORIGINATOR     = 

OBJECT_NAME    = UNKNOWN
OBJECT_ID      = 
CENTER_NAME    = EARTH
REF_FRAME      = TEME
TIME_SYSTEM    = UTC
MEAN_ELEMENT_THEORY = SGP/SGP4

EPOCH          = 2025-11-29T11:54:15.993216
MEAN_MOTION    = 13.62548165
ECCENTRICITY   = .0044551
INCLINATION    = 100.4864
RA_OF_ASC_NODE = 347.7836
ARG_OF_PERICENTER = 162.1309
MEAN_ANOMALY   = 198.1407

EPHEMERIS_TYPE = 0
CLASSIFICATION_TYPE = U
NORAD_CAT_ID   = 89379
ELEMENT_SET_NO = 999
REV_AT_EPOCH   = 57897
BSTAR          = .52379E-2
MEAN_MOTION_DOT = .4051E-4
MEAN_MOTION_DDOT = 0

CCSDS_OMM_VERS = 2.0
CREATION_DATE  = 
ORIGINATOR     = 

OBJECT_NAME    = UNKNOWN
OBJECT_ID      = 
CENTER_NAME    = EARTH
REF_FRAME      = TEME
TIME_SYSTEM    = UTC
MEAN_ELEMENT_THEORY = SGP/SGP4

EPOCH          = 2025-11-26T10:19:17.849280
MEAN_MOTION    = 12.01514817
ECCENTRICITY   = .0221848
INCLINATION    = 102.3682
RA_OF_ASC_NODE = 299.5856
ARG_OF_PERICENTER = 152.7477
MEAN_ANOMALY   = 0.1865

EPHEMERIS_TYPE = 0
CLASSIFICATION_TYPE = U
NORAD_CAT_ID   = 89395
ELEMENT_SET_NO = 999
REV_AT_EPOCH   = 52278
BSTAR          = .16005E-2
MEAN_MOTION_DOT = .1E-5
MEAN_MOTION_DDOT = 0

CCSDS_OMM_VERS = 2.0
CREATION_DATE  = 
ORIGINATOR     = 

OBJECT_NAME    = UNKNOWN
OBJECT_ID      = 
CENTER_NAME    = EARTH
REF_FRAME      = TEME
TIME_SYSTEM    = UTC
MEAN_ELEMENT_THEORY = SGP/SGP4

EPOCH          = 2025-11-27T01:44:15.667584
MEAN_MOTION    = 12.98727264
ECCENTRICITY   = .0027495
INCLINATION    = 90.2483
RA_OF_ASC_NODE = 5.4537
ARG_OF_PERICENTER = 255.8445
MEAN_ANOMALY   = 133.0686

EPHEMERIS_TYPE = 0
CLASSIFICATION_TYPE = U
NORAD_CAT_ID   = 89403
ELEMENT_SET_NO = 999
REV_AT_EPOCH   = 47579
BSTAR          = .10301E-2
MEAN_MOTION_DOT = .312E-5
MEAN_MOTION_DDOT = 0

CCSDS_OMM_VERS = 2.0
CREATION_DATE  = 
ORIGINATOR     = 

OBJECT_NAME    = UNKNOWN
OBJECT_ID      = 
CENTER_NAME    = EARTH
REF_FRAME      = TEME
TIME_SYSTEM    = UTC
MEAN_ELEMENT_THEORY = SGP/SGP4

EPOCH          = 2025-11-29T12:58:59.637792
MEAN_MOTION    = 9.13452481
ECCENTRICITY   = .2858742
INCLINATION    = 84.0945
RA_OF_ASC_NODE = 158.4980
ARG_OF_PERICENTER = 44.1363
MEAN_ANOMALY   = 335.5136

EPHEMERIS_TYPE = 0
CLASSIFICATION_TYPE = U
NORAD_CAT_ID   = 89484
ELEMENT_SET_NO = 999
REV_AT_EPOCH   = 35423
BSTAR          = .25161E-1
MEAN_MOTION_DOT = .32515E-3
MEAN_MOTION_DDOT = 0

CCSDS_OMM_VERS = 2.0
CREATION_DATE  = 
ORIGINATOR     = 

OBJECT_NAME    = UNKNOWN
OBJECT_ID      = 
CENTER_NAME    = EARTH
REF_FRAME      = TEME
TIME_SYSTEM    = UTC
MEAN_ELEMENT_THEORY = SGP/SGP4

EPOCH          = 2025-11-29T00:25:55.027200
MEAN_MOTION    = 14.16152743
ECCENTRICITY   = .0081025
INCLINATION    = 99.0297
RA_OF_ASC_NODE = 41.7011
ARG_OF_PERICENTER = 79.8390
MEAN_ANOMALY   = 281.1910

EPHEMERIS_TYPE = 0
CLASSIFICATION_TYPE = U
NORAD_CAT_ID   = 89493
ELEMENT_SET_NO = 999
REV_AT_EPOCH   = 46200
BSTAR          = .13826E-2
MEAN_MOTION_DOT = .2779E-4
MEAN_MOTION_DDOT = 0

CCSDS_OMM_VERS = 2.0
CREATION_DATE  = 
ORIGINATOR     = 

OBJECT_NAME    = UNKNOWN
OBJECT_ID      = 
CENTER_NAME    = EARTH
REF_FRAME      = TEME
TIME_SYSTEM    = UTC
MEAN_ELEMENT_THEORY = SGP/SGP4

EPOCH          = 2025-11-29T15:17:13.425216
MEAN_MOTION    = 14.16088149
ECCENTRICITY   = .0082247
INCLINATION    = 99.0282
RA_OF_ASC_NODE = 42.2131
ARG_OF_PERICENTER = 78.2848
MEAN_ANOMALY   = 282.7539

EPHEMERIS_TYPE = 0
CLASSIFICATION_TYPE = U
NORAD_CAT_ID   = 89494
ELEMENT_SET_NO = 999
REV_AT_EPOCH   = 46194
BSTAR          = .13943E-2
MEAN_MOTION_DOT = .2802E-4
MEAN_MOTION_DDOT = 0

