UNKNOWN                 
1 89261U          25332.74859100  .00000962  00000+0  29887-3 0  9998
2 89261  98.1535 327.7647 0012400 196.6700 163.4085 14.43071030531796
UNKNOWN                 
1 89304U          25329.67734543  .00011515  00000+0  14997-1 0  9997
2 89304  84.3527 108.5142 2843836   7.7412   2.8097  9.02796215436865
UNKNOWN                 
1 89349U          25331.55557924  .00000594  00000+0  20556-2 0  9996
2 89349  90.2454   7.0140 0028078 307.0052  52.8499 12.96237304476789
UNKNOWN                 
1 89379U          25333.49601844  .00004051  00000+0  52379-2 0  9995
2 89379 100.4864 347.7836 0044551 162.1309 198.1407 13.62548165578977
UNKNOWN                 
1 89395U          25330.43006770  .00000100  00000+0  16005-2 0  9998
2 89395 102.3682 299.5856 0221848 152.7477   0.1865 12.01514817522784
UNKNOWN                 
1 89403U          25331.07240356  .00000312  00000+0  10301-2 0  9997
2 89403  90.2483   5.4537 0027495 255.8445 133.0686 12.98727264475793
UNKNOWN                 
1 89484U          25333.54096803  .00032515  00000+0  25161-1 0  9995
2 89484  84.0945 158.4980 2858742  44.1363 335.5136  9.13452481354237
UNKNOWN                 
1 89493U          25333.01799800  .00002779  00000+0  13826-2 0  9999
2 89493  99.0297  41.7011 0081025  79.8390 281.1910 14.16152743462005
UNKNOWN                 
1 89494U          25333.63696094  .00002802  00000+0  13943-2 0  9996
2 89494  99.0282  42.2131 0082247  78.2848 282.7539 14.16088149461941
